{
  "type": "FeatureCollection",
  "features": [
    {
      "type": "Feature",
      "properties": {
        "norad_id": 38474,
        "name": "IRIDIUM 33 DEB",
        "group": "iridium-33-debris",
        "lat": 31.295776270623367,
        "lon": 13.213550455171445,
        "alt_km": 712.540204300195,
        "timestamp": "2025-12-10T14:53:37.473977+00:00",
        "meta_object_name": "IRIDIUM 33 DEB",
        "meta_object_id": "1997-051AAB",
        "meta_epoch": "2025-12-08T08:07:09.463872",
        "meta_mean_motion": 14.50663948,
        "meta_eccentricity": 0.00281226,
        "meta_inclination": 86.3436,
        "meta_ra_of_asc_node": 11.9798,
        "meta_arg_of_pericenter": 101.673,
        "meta_mean_anomaly": 258.7634,
        "meta_ephemeris_type": 0,
        "meta_classification_type": "U",
        "meta_norad_cat_id": 38474,
        "meta_element_set_no": 999,
        "meta_rev_at_epoch": 65254,
        "meta_bstar": 0.0008115799,
        "meta_mean_motion_dot": 3.222e-05,
        "meta_mean_motion_ddot": 0,
        "tle_line1": "1 38474U 97051AAB 25342.33830398  .00003222  00000+0  81158-3 0  9995",
        "tle_line2": "2 38474  86.3436  11.9798 0028122 101.6730 258.7634 14.50663948652549"
      },
      "geometry": {
        "type": "Point",
        "coordinates": [
          13.213550455171445,
          31.295776270623367
        ]
      }
    },
    {
      "type": "Feature",
      "properties": {
        "norad_id": 39777,
        "name": "IRIDIUM 33 DEB",
        "group": "iridium-33-debris",
        "lat": 34.28718148633036,
        "lon": 178.83095622129005,
        "alt_km": 742.4297231439114,
        "timestamp": "2025-12-10T14:53:37.473986+00:00",
        "meta_object_name": "IRIDIUM 33 DEB",
        "meta_object_id": "1997-051AAJ",
        "meta_epoch": "2025-12-10T06:29:21.505920",
        "meta_mean_motion": 14.56331625,
        "meta_eccentricity": 0.0059749,
        "meta_inclination": 85.963,
        "meta_ra_of_asc_node": 176.2409,
        "meta_arg_of_pericenter": 194.9119,
        "meta_mean_anomaly": 165.033,
        "meta_ephemeris_type": 0,
        "meta_classification_type": "U",
        "meta_norad_cat_id": 39777,
        "meta_element_set_no": 999,
        "meta_rev_at_epoch": 60149,
        "meta_bstar": 0.0040496562,
        "meta_mean_motion_dot": 0.00018433,
        "meta_mean_motion_ddot": 0,
        "tle_line1": "1 39777U 97051AAJ 25344.27038780  .00018433  00000+0  40497-2 0  9992",
        "tle_line2": "2 39777  85.9630 176.2409 0059749 194.9119 165.0330 14.56331625601497"
      },
      "geometry": {
        "type": "Point",
        "coordinates": [
          178.83095622129005,
          34.28718148633036
        ]
      }
    },
    {
      "type": "Feature",
      "properties": {
        "norad_id": 39778,
        "name": "IRIDIUM 33 DEB",
        "group": "iridium-33-debris",
        "lat": -65.77132010807635,
        "lon": -127.76197593262478,
        "alt_km": 724.7556619815559,
        "timestamp": "2025-12-10T14:53:37.473995+00:00",
        "meta_object_name": "IRIDIUM 33 DEB",
        "meta_object_id": "1997-051AAK",
        "meta_epoch": "2025-12-09T14:38:46.743072",
        "meta_mean_motion": 14.5422784,
        "meta_eccentricity": 0.000831,
        "meta_inclination": 86.3774,
        "meta_ra_of_asc_node": 44.5837,
        "meta_arg_of_pericenter": 51.0952,
        "meta_mean_anomaly": 309.0995,
        "meta_ephemeris_type": 0,
        "meta_classification_type": "U",
        "meta_norad_cat_id": 39778,
        "meta_element_set_no": 999,
        "meta_rev_at_epoch": 60647,
        "meta_bstar": 0.0013888,
        "meta_mean_motion_dot": 5.904e-05,
        "meta_mean_motion_ddot": 0,
        "tle_line1": "1 39778U 97051AAK 25343.61026323  .00005904  00000+0  13888-2 0  9993",
        "tle_line2": "2 39778  86.3774  44.5837 0008310  51.0952 309.0995 14.54227840606471"
      },
      "geometry": {
        "type": "Point",
        "coordinates": [
          -127.76197593262478,
          -65.77132010807635
        ]
      }
    },
    {
      "type": "Feature",
      "properties": {
        "norad_id": 39781,
        "name": "IRIDIUM 33 DEB",
        "group": "iridium-33-debris",
        "lat": -76.92655446202478,
        "lon": 94.71801414458258,
        "alt_km": 712.2585695911803,
        "timestamp": "2025-12-10T14:53:37.474004+00:00",
        "meta_object_name": "IRIDIUM 33 DEB",
        "meta_object_id": "1997-051AAN",
        "meta_epoch": "2025-12-09T13:09:45.576288",
        "meta_mean_motion": 14.20481305,
        "meta_eccentricity": 0.0178151,
        "meta_inclination": 86.3699,
        "meta_ra_of_asc_node": 259.2946,
        "meta_arg_of_pericenter": 283.4405,
        "meta_mean_anomaly": 255.4968,
        "meta_ephemeris_type": 0,
        "meta_classification_type": "U",
        "meta_norad_cat_id": 39781,
        "meta_element_set_no": 999,
        "meta_rev_at_epoch": 8061,
        "meta_bstar": 0.0082391,
        "meta_mean_motion_dot": 0.00020802,
        "meta_mean_motion_ddot": 0,
        "tle_line1": "1 39781U 97051AAN 25343.54844417  .00020802  00000+0  82391-2 0  9990",
        "tle_line2": "2 39781  86.3699 259.2946 0178151 283.4405 255.4968 14.20481305 80619"
      },
      "geometry": {
        "type": "Point",
        "coordinates": [
          94.71801414458258,
          -76.92655446202478
        ]
      }
    },
    {
      "type": "Feature",
      "properties": {
        "norad_id": 39783,
        "name": "IRIDIUM 33 DEB",
        "group": "iridium-33-debris",
        "lat": 66.58980202092485,
        "lon": -94.62108711029916,
        "alt_km": 460.0201866854122,
        "timestamp": "2025-12-10T14:53:37.474014+00:00",
        "meta_object_name": "IRIDIUM 33 DEB",
        "meta_object_id": "1997-051AAQ",
        "meta_epoch": "2025-11-16T15:05:40.850592",
        "meta_mean_motion": 15.19327111,
        "meta_eccentricity": 0.00057535,
        "meta_inclination": 86.1306,
        "meta_ra_of_asc_node": 268.8004,
        "meta_arg_of_pericenter": 179.9151,
        "meta_mean_anomaly": 1.8316,
        "meta_ephemeris_type": 0,
        "meta_classification_type": "U",
        "meta_norad_cat_id": 39783,
        "meta_element_set_no": 999,
        "meta_rev_at_epoch": 60401,
        "meta_bstar": 0.010398125,
        "meta_mean_motion_dot": 0.00226179,
        "meta_mean_motion_ddot": 0,
        "tle_line1": "1 39783U 97051AAQ 25320.62894503  .00226179  00000+0  10398-1 0  9999",
        "tle_line2": "2 39783  86.1306 268.8004 0005753 179.9151   1.8316 15.19327111604018"
      },
      "geometry": {
        "type": "Point",
        "coordinates": [
          -94.62108711029916,
          66.58980202092485
        ]
      }
    },
    {
      "type": "Feature",
      "properties": {
        "norad_id": 40996,
        "name": "IRIDIUM 33 DEB",
        "group": "iridium-33-debris",
        "lat": -31.907767367424373,
        "lon": -175.32394746069468,
        "alt_km": 592.177637306886,
        "timestamp": "2025-12-10T14:53:37.474023+00:00",
        "meta_object_name": "IRIDIUM 33 DEB",
        "meta_object_id": "1997-051ABJ",
        "meta_epoch": "2025-12-09T19:28:10.178688",
        "meta_mean_motion": 14.95954954,
        "meta_eccentricity": 0.00121472,
        "meta_inclination": 86.3518,
        "meta_ra_of_asc_node": 2.7772,
        "meta_arg_of_pericenter": 71.5463,
        "meta_mean_anomaly": 104.382,
        "meta_ephemeris_type": 0,
        "meta_classification_type": "U",
        "meta_norad_cat_id": 40996,
        "meta_element_set_no": 999,
        "meta_rev_at_epoch": 62444,
        "meta_bstar": 0.0038127414,
        "meta_mean_motion_dot": 0.00042994,
        "meta_mean_motion_ddot": 0,
        "tle_line1": "1 40996U 97051ABJ 25343.81122892  .00042994  00000+0  38127-2 0  9990",
        "tle_line2": "2 40996  86.3518   2.7772 0012147  71.5463 104.3820 14.95954954624440"
      },
      "geometry": {
        "type": "Point",
        "coordinates": [
          -175.32394746069468,
          -31.907767367424373
        ]
      }
    },
    {
      "type": "Feature",
      "properties": {
        "norad_id": 40998,
        "name": "IRIDIUM 33 DEB",
        "group": "iridium-33-debris",
        "lat": -24.729080997429865,
        "lon": 52.891361200530014,
        "alt_km": 750.1867636762863,
        "timestamp": "2025-12-10T14:53:37.474032+00:00",
        "meta_object_name": "IRIDIUM 33 DEB",
        "meta_object_id": "1997-051ABL",
        "meta_epoch": "2025-12-09T22:57:49.203072",
        "meta_mean_motion": 14.45082428,
        "meta_eccentricity": 0.00095723,
        "meta_inclination": 86.3826,
        "meta_ra_of_asc_node": 54.8444,
        "meta_arg_of_pericenter": 91.708,
        "meta_mean_anomaly": 32.8835,
        "meta_ephemeris_type": 0,
        "meta_classification_type": "U",
        "meta_norad_cat_id": 40998,
        "meta_element_set_no": 999,
        "meta_rev_at_epoch": 6641,
        "meta_bstar": 0.00070534207,
        "meta_mean_motion_dot": 2.485e-05,
        "meta_mean_motion_ddot": 0,
        "tle_line1": "1 40998U 97051ABL 25343.95681948  .00002485  00000+0  70534-3 0  9999",
        "tle_line2": "2 40998  86.3826  54.8444 0009572  91.7080  32.8835 14.45082428 66416"
      },
      "geometry": {
        "type": "Point",
        "coordinates": [
          52.891361200530014,
          -24.729080997429865
        ]
      }
    }
  ]
}